start=new Date('2022-05-14T00:00:00.000Z').valueOf();
sats=[{"BSTAR":"0.00206130000000","ECCENTRICITY":"0.00045530","NORAD_CAT_ID":"44238","PERIAPSIS":"473.261","MEAN_MOTION":"15.29809941","OBJECT_NAME":"STARLINK-24","OBJECT_ID":"2019-029D","COUNTRY_CODE":"US","MEAN_MOTION_DDOT":"0.0000000000000","GP_ID":"203474913","PERIOD":"94.129","SITE":"AFETR","DECAY_DATE":null,"CLASSIFICATION_TYPE":"U","REV_AT_EPOCH":"16289","OBJECT_TYPE":"PAYLOAD","ELEMENT_SET_NO":"999","RCS_SIZE":"LARGE","MEAN_ANOMALY":"88.7507","EPOCH":"2022-05-13T15:35:28.519296","INCLINATION":"53.0081","SEMIMAJOR_AXIS":"6854.517","MEAN_MOTION_DOT":"0.00060472","CENTER_NAME":"EARTH","TLE_LINE2":"2 44238  53.0081 273.1204 0004553 271.2970  88.7507 15.29809941162893","MEAN_ELEMENT_THEORY":"SGP4","RA_OF_ASC_NODE":"273.1204","TIME_SYSTEM":"UTC","LAUNCH_DATE":"2019-05-24","REF_FRAME":"TEME","EPHEMERIS_TYPE":"0","TLE_LINE1":"1 44238U 19029D   22133.64963564  .00060472  00000-0  20613-2 0  9999","ARG_OF_PERICENTER":"271.2970","FILE":"3444395","APOAPSIS":"479.503"},{"COUNTRY_CODE":"US","MEAN_MOTION_DDOT":"0.0000000000000","GP_ID":"203439586","PERIOD":"93.174","SITE":"AFETR","DECAY_DATE":null,"CLASSIFICATION_TYPE":"U","OBJECT_TYPE":"PAYLOAD","ELEMENT_SET_NO":"999","REV_AT_EPOCH":"16415","RCS_SIZE":"LARGE","MEAN_ANOMALY":"9.7074","EPOCH":"2022-05-13T11:01:13.624608","INCLINATION":"52.9733","SEMIMAJOR_AXIS":"6808.065","BSTAR":"0.00303630000000","NORAD_CAT_ID":"44249","ECCENTRICITY":"0.00140790","PERIAPSIS":"420.345","MEAN_MOTION":"15.45493680","OBJECT_NAME":"STARLINK-61","OBJECT_ID":"2019-029Q","RA_OF_ASC_NODE":"231.1240","LAUNCH_DATE":"2019-05-24","TIME_SYSTEM":"UTC","REF_FRAME":"TEME","TLE_LINE1":"1 44249U 19029Q   22133.45918547  .00150914  00000-0  30363-2 0  9995","ARG_OF_PERICENTER":"350.3659","EPHEMERIS_TYPE":"0","FILE":"3443851","APOAPSIS":"439.515","CENTER_NAME":"EARTH","MEAN_MOTION_DOT":"0.00150914","TLE_LINE2":"2 44249  52.9733 231.1240 0014079 350.3659   9.7074 15.45493680164158","MEAN_ELEMENT_THEORY":"SGP4"},{"EPHEMERIS_TYPE":"0","TLE_LINE1":"1 44252U 19029T   22133.64441549  .00061379  00000-0  19326-2 0  9995","ARG_OF_PERICENTER":"264.3314","FILE":"3444395","APOAPSIS":"472.190","RA_OF_ASC_NODE":"269.5061","TIME_SYSTEM":"UTC","LAUNCH_DATE":"2019-05-24","REF_FRAME":"TEME","MEAN_ELEMENT_THEORY":"SGP4","MEAN_MOTION_DOT":"0.00061379","CENTER_NAME":"EARTH","TLE_LINE2":"2 44252  52.9983 269.5061 0004978 264.3314  95.7118 15.32357888163589","RCS_SIZE":"LARGE","MEAN_ANOMALY":"95.7118","EPOCH":"2022-05-13T15:27:57.498336","INCLINATION":"52.9983","SEMIMAJOR_AXIS":"6846.917","COUNTRY_CODE":"US","MEAN_MOTION_DDOT":"0.0000000000000","PERIOD":"93.973","GP_ID":"203476415","SITE":"AFETR","DECAY_DATE":null,"CLASSIFICATION_TYPE":"U","ELEMENT_SET_NO":"999","OBJECT_TYPE":"PAYLOAD","REV_AT_EPOCH":"16358","PERIAPSIS":"465.373","MEAN_MOTION":"15.32357888","OBJECT_ID":"2019-029T","OBJECT_NAME":"STARLINK-71","BSTAR":"0.00193260000000","ECCENTRICITY":"0.00049780","NORAD_CAT_ID":"44252"},{"RCS_SIZE":"LARGE","SEMIMAJOR_AXIS":"6925.353","INCLINATION":"53.0534","EPOCH":"2022-05-13T15:42:27.998208","MEAN_ANOMALY":"282.2244","SITE":"AFETR","GP_ID":"203474952","PERIOD":"95.592","MEAN_MOTION_DDOT":"0.0000000000000","COUNTRY_CODE":"US","OBJECT_TYPE":"PAYLOAD","ELEMENT_SET_NO":"999","REV_AT_EPOCH":"13833","CLASSIFICATION_TYPE":"U","DECAY_DATE":null,"PERIAPSIS":"546.342","OBJECT_ID":"2019-074A","OBJECT_NAME":"STARLINK-1007","MEAN_MOTION":"15.06398700","BSTAR":"0.00009270400000","ECCENTRICITY":"0.00012640","NORAD_CAT_ID":"44713","FILE":"3444395","TLE_LINE1":"1 44713U 19074A   22133.65449072  .00001100  00000-0  92704-4 0  9996","ARG_OF_PERICENTER":"77.8887","EPHEMERIS_TYPE":"0","APOAPSIS":"548.093","RA_OF_ASC_NODE":"333.6524","REF_FRAME":"TEME","LAUNCH_DATE":"2019-11-11","TIME_SYSTEM":"UTC","MEAN_ELEMENT_THEORY":"SGP4","CENTER_NAME":"EARTH","MEAN_MOTION_DOT":"0.00001100","TLE_LINE2":"2 44713  53.0534 333.6524 0001264  77.8887 282.2244 15.06398700138336"},{"FILE":"3444075","EPHEMERIS_TYPE":"0","TLE_LINE1":"1 44714U 19074B   22133.83236343 -.00000489  00000-0 -13929-4 0  9995","ARG_OF_PERICENTER":"64.5680","APOAPSIS":"548.192","RA_OF_ASC_NODE":"332.8780","REF_FRAME":"TEME","TIME_SYSTEM":"UTC","LAUNCH_DATE":"2019-11-11","MEAN_ELEMENT_THEORY":"SGP4","CENTER_NAME":"EARTH","MEAN_MOTION_DOT":"-0.00000489","TLE_LINE2":"2 44714  53.0535 332.8780 0001388  64.5680 295.5453 15.06394413138532","RCS_SIZE":"LARGE","SEMIMAJOR_AXIS":"6925.366","INCLINATION":"53.0535","EPOCH":"2022-05-13T19:58:36.200352","MEAN_ANOMALY":"295.5453","SITE":"AFETR","PERIOD":"95.592","GP_ID":"203449044","COUNTRY_CODE":"US","MEAN_MOTION_DDOT":"0.0000000000000","REV_AT_EPOCH":"13853","OBJECT_TYPE":"PAYLOAD","ELEMENT_SET_NO":"999","CLASSIFICATION_TYPE":"U","DECAY_DATE":null,"PERIAPSIS":"546.269","OBJECT_ID":"2019-074B","OBJECT_NAME":"STARLINK-1008","MEAN_MOTION":"15.06394413","BSTAR":"-0.00001392900000","ECCENTRICITY":"0.00013880","NORAD_CAT_ID":"44714"},{"TLE_LINE2":"2 44715  53.0553 332.9217 0001919  87.1541 272.9667 15.06401808138359","CENTER_NAME":"EARTH","MEAN_MOTION_DOT":"0.00000663","MEAN_ELEMENT_THEORY":"SGP4","LAUNCH_DATE":"2019-11-11","TIME_SYSTEM":"UTC","REF_FRAME":"TEME","RA_OF_ASC_NODE":"332.9217","APOAPSIS":"548.537","ARG_OF_PERICENTER":"87.1541","TLE_LINE1":"1 44715U 19074C   22133.82130140  .00000663  00000-0  63419-4 0  9994","EPHEMERIS_TYPE":"0","FILE":"3444395","NORAD_CAT_ID":"44715","ECCENTRICITY":"0.00019190","BSTAR":"0.00006341900000","MEAN_MOTION":"15.06401808","OBJECT_ID":"2019-074C","OBJECT_NAME":"STARLINK-1009","PERIAPSIS":"545.879","DECAY_DATE":null,"CLASSIFICATION_TYPE":"U","OBJECT_TYPE":"PAYLOAD","ELEMENT_SET_NO":"999","REV_AT_EPOCH":"13835","MEAN_MOTION_DDOT":"0.0000000000000","COUNTRY_CODE":"US","PERIOD":"95.592","GP_ID":"203476454","SITE":"AFETR","MEAN_ANOMALY":"272.9667","EPOCH":"2022-05-13T19:42:40.440960","INCLINATION":"53.0553","SEMIMAJOR_AXIS":"6925.343","RCS_SIZE":"LARGE"},{"FILE":"3444131","TLE_LINE1":"1 44716U 19074D   22133.83973055  .00001153  00000-0  96277-4 0  9999","EPHEMERIS_TYPE":"0","ARG_OF_PERICENTER":"86.7543","APOAPSIS":"548.116","RA_OF_ASC_NODE":"332.8424","TIME_SYSTEM":"UTC","LAUNCH_DATE":"2019-11-11","REF_FRAME":"TEME","MEAN_ELEMENT_THEORY":"SGP4","CENTER_NAME":"EARTH","MEAN_MOTION_DOT":"0.00001153","TLE_LINE2":"2 44716  53.0564 332.8424 0001294  86.7543 273.3594 15.06397825138519","RCS_SIZE":"LARGE","INCLINATION":"53.0564","SEMIMAJOR_AXIS":"6925.355","MEAN_ANOMALY":"273.3594","EPOCH":"2022-05-13T20:09:12.719520","GP_ID":"203450947","PERIOD":"95.592","SITE":"AFETR","COUNTRY_CODE":"US","MEAN_MOTION_DDOT":"0.0000000000000","OBJECT_TYPE":"PAYLOAD","ELEMENT_SET_NO":"999","REV_AT_EPOCH":"13851","DECAY_DATE":null,"CLASSIFICATION_TYPE":"U","PERIAPSIS":"546.324","OBJECT_ID":"2019-074D","OBJECT_NAME":"STARLINK-1010","MEAN_MOTION":"15.06397825","BSTAR":"0.00009627700000","ECCENTRICITY":"0.00012940","NORAD_CAT_ID":"44716"},{"MEAN_ELEMENT_THEORY":"SGP4","TLE_LINE2":"2 44717  53.0556 352.5305 0001823  47.1762 312.9380 15.06390216138093","CENTER_NAME":"EARTH","MEAN_MOTION_DOT":"-0.00000789","APOAPSIS":"548.506","FILE":"3444395","ARG_OF_PERICENTER":"47.1762","TLE_LINE1":"1 44717U 19074E   22133.90423910 -.00000789  00000-0 -34073-4 0  9990","EPHEMERIS_TYPE":"0","REF_FRAME":"TEME","LAUNCH_DATE":"2019-11-11","TIME_SYSTEM":"UTC","RA_OF_ASC_NODE":"352.5305","OBJECT_NAME":"STARLINK-1011","OBJECT_ID":"2019-074E","MEAN_MOTION":"15.06390216","PERIAPSIS":"545.981","ECCENTRICITY":"0.00018230","NORAD_CAT_ID":"44717","BSTAR":"-0.00003407300000","SEMIMAJOR_AXIS":"6925.379","INCLINATION":"53.0556","EPOCH":"2022-05-13T21:42:06.258240","MEAN_ANOMALY":"312.9380","RCS_SIZE":"LARGE","OBJECT_TYPE":"PAYLOAD","ELEMENT_SET_NO":"999","REV_AT_EPOCH":"13809","CLASSIFICATION_TYPE":"U","DECAY_DATE":null,"SITE":"AFETR","PERIOD":"95.593","GP_ID":"203475452","MEAN_MOTION_DDOT":"0.0000000000000","COUNTRY_CODE":"US"},{"APOAPSIS":"548.580","TLE_LINE1":"1 44718U 19074F   22133.81023893 -.00001004  00000-0 -48488-4 0  9993","ARG_OF_PERICENTER":"80.9519","EPHEMERIS_TYPE":"0","FILE":"3444395","LAUNCH_DATE":"2019-11-11","TIME_SYSTEM":"UTC","REF_FRAME":"TEME","RA_OF_ASC_NODE":"332.9708","MEAN_ELEMENT_THEORY":"SGP4","TLE_LINE2":"2 44718  53.0569 332.9708 0002021  80.9519 279.1699 15.06410952138359","MEAN_MOTION_DOT":"-0.00001004","CENTER_NAME":"EARTH","MEAN_ANOMALY":"279.1699","EPOCH":"2022-05-13T19:26:44.643552","INCLINATION":"53.0569","SEMIMAJOR_AXIS":"6925.315","RCS_SIZE":"LARGE","DECAY_DATE":null,"CLASSIFICATION_TYPE":"U","ELEMENT_SET_NO":"999","OBJECT_TYPE":"PAYLOAD","REV_AT_EPOCH":"13835","MEAN_MOTION_DDOT":"0.0000000000000","COUNTRY_CODE":"US","PERIOD":"95.591","GP_ID":"203475704","SITE":"AFETR","MEAN_MOTION":"15.06410952","OBJECT_NAME":"STARLINK-1012","OBJECT_ID":"2019-074F","PERIAPSIS":"545.780","NORAD_CAT_ID":"44718","ECCENTRICITY":"0.00020210","BSTAR":"-0.00004848800000"},{"BSTAR":"0.00013801000000","NORAD_CAT_ID":"44719","ECCENTRICITY":"0.00014900","PERIAPSIS":"546.175","OBJECT_NAME":"STARLINK-1013","OBJECT_ID":"2019-074G","MEAN_MOTION":"15.06402118","GP_ID":"203475955","PERIOD":"95.592","SITE":"AFETR","MEAN_MOTION_DDOT":"0.0000000000000","COUNTRY_CODE":"US","REV_AT_EPOCH":"13948","OBJECT_TYPE":"PAYLOAD","ELEMENT_SET_NO":"999","DECAY_DATE":null,"CLASSIFICATION_TYPE":"U","RCS_SIZE":"LARGE","INCLINATION":"53.0563","SEMIMAJOR_AXIS":"6925.342","MEAN_ANOMALY":"291.0437","EPOCH":"2022-05-13T19:37:21.843552","CENTER_NAME":"EARTH","MEAN_MOTION_DOT":"0.00001775","TLE_LINE2":"2 44719  53.0563 332.9417 0001490  69.0712 291.0437 15.06402118139486","MEAN_ELEMENT_THEORY":"SGP4","RA_OF_ASC_NODE":"332.9417","TIME_SYSTEM":"UTC","LAUNCH_DATE":"2019-11-11","REF_FRAME":"TEME","FILE":"3444395","TLE_LINE1":"1 44719U 19074G   22133.81761393  .00001775  00000-0  13801-3 0  9991","EPHEMERIS_TYPE":"0","ARG_OF_PERICENTER":"69.0712","APOAPSIS":"548.239"}];
